NORAD_CAT_ID,OBJECT_NAME,OBJECT_TYPE,EPOCH,MEAN_MOTION,ECCENTRICITY,INCLINATION,RA_OF_ASC_NODE,ARG_OF_PERICENTER,MEAN_ANOMALY,BSTAR,MEAN_MOTION_DOT,MEAN_MOTION_DDOT,TLE_LINE0,TLE_LINE1,TLE_LINE2,SEMIMAJOR_AXIS,PERIOD,APOGEE,PERIGEE,DECAYED
55785.0,STARLINK-5818,PAYLOAD,2024-04-11 04:33:49,14.98325689,0.0003376,69.9995,163.258,266.2017,93.8756,9.5138e-05,1.042e-05,0.0,0 STARLINK-5818,1 55785U 23028AW  24102.19015126  .00001042  00000-0  95138-4 0  9996,2 55785  69.9995 163.2580 0003376 266.2017  93.8756 14.98325689 62536,6950.206,96.107,574.418,569.725,0.0
55785.0,STARLINK-5818,PAYLOAD,2024-04-11 14:10:37,14.9832951,0.0003431,69.9995,162.2483,266.6176,93.4591,9.2865e-05,1.015e-05,0.0,0 STARLINK-5818,1 55785U 23028AW  24102.59070960  .00001015  00000-0  92865-4 0  9991,2 55785  69.9995 162.2483 0003431 266.6176  93.4591 14.98329510 62607,6950.194,96.107,574.444,569.675,0.0
55785.0,STARLINK-5818,PAYLOAD,2024-04-12 04:35:50,14.98328931,0.0003356,69.9996,160.7334,266.7029,93.3746,2.1072e-05,1.58e-06,0.0,0 STARLINK-5818,1 55785U 23028AW  24103.19155235  .00000158  00000-0  21072-4 0  9996,2 55785  69.9996 160.7334 0003356 266.7029  93.3746 14.98328931 62685,6950.196,96.107,574.394,569.729,0.0
55785.0,STARLINK-5818,PAYLOAD,2024-04-12 14:12:38,14.98332161,0.0003337,69.9997,159.7235,267.0517,93.026,4.1002e-05,3.96e-06,0.0,0 STARLINK-5818,1 55785U 23028AW  24103.59210953  .00000396  00000-0  41002-4 0  9998,2 55785  69.9997 159.7235 0003337 267.0517  93.0260 14.98332161 62755,6950.186,96.107,574.37,569.732,0.0
55785.0,STARLINK-5818,PAYLOAD,2024-04-13 04:37:51,14.98327564,0.0003219,70.0,158.2088,268.0909,91.9881,-5.8836e-05,-7.95e-06,0.0,0 STARLINK-5818,1 55785U 23028AW  24104.19295550 -.00000795  00000-0 -58836-4 0  9999,2 55785  70.0000 158.2088 0003219 268.0909  91.9881 14.98327564 62834,6950.2,96.107,574.303,569.828,0.0
55785.0,STARLINK-5818,PAYLOAD,2024-04-13 12:38:31,14.98326663,0.0003143,70.0001,157.3681,264.6005,95.4796,-4.4743e-05,-6.27e-06,0.0,0 STARLINK-5818,1 55785U 23028AW  24104.52675593 -.00000627  00000-0 -44743-4 0  9991,2 55785  70.0001 157.3681 0003143 264.6005  95.4796 14.98326663 62898,6950.203,96.107,574.253,569.884,0.0
55785.0,STARLINK-5818,PAYLOAD,2024-04-14 04:39:48,14.98375014,0.0003694,70.0001,155.6847,275.5643,84.5095,0.00049963,5.881e-05,0.0,0 STARLINK-5818,1 55785U 23028AW  24105.19430886  .00005881  00000-0  49963-3 0  9992,2 55785  70.0001 155.6847 0003694 275.5643  84.5095 14.98375014 62988,6950.054,96.104,574.486,569.351,0.0
55785.0,STARLINK-5818,PAYLOAD,2024-04-14 12:40:31,14.98326264,0.0002879,70.0001,154.8431,263.8537,96.2294,-9.0115e-05,-1.168e-05,0.0,0 STARLINK-5818,1 55785U 23028AW  24105.52814469 -.00001168  00000-0 -90115-4 0  9994,2 55785  70.0001 154.8431 0002879 263.8537  96.2294 14.98326264 63035,6950.204,96.107,574.07,570.068,0.0
55785.0,STARLINK-5818,PAYLOAD,2024-04-15 04:41:51,14.98335375,0.0003309,69.9984,153.1584,271.7365,88.3415,1.4307e-05,7.8e-07,0.0,0 STARLINK-5818,1 55785U 23028AW  24106.19573296  .00000078  00000-0  14307-4 0  9994,2 55785  69.9984 153.1584 0003309 271.7365  88.3415 14.98335375 63130,6950.176,96.107,574.341,569.741,0.0
55785.0,STARLINK-5818,PAYLOAD,2024-04-15 12:42:32,14.98326147,0.0003422,69.9988,152.3173,272.9588,87.1179,-7.4657e-05,-9.84e-06,0.0,0 STARLINK-5818,1 55785U 23028AW  24106.52954028 -.00000984  00000-0 -74657-4 0  9999,2 55785  69.9988 152.3173 0003422 272.9588  87.1179 14.98326147 63181,6950.205,96.107,574.448,569.691,0.0
55785.0,STARLINK-5818,PAYLOAD,2024-04-15 20:43:13,14.98322436,0.0003357,69.9989,151.4767,273.694,86.3835,-0.00014073,-1.772e-05,0.0,0 STARLINK-5818,1 55785U 23028AW  24106.86334510 -.00001772  00000-0 -14073-3 0  9995,2 55785  69.9989 151.4767 0003357 273.6940  86.3835 14.98322436 63242,6950.216,96.107,574.414,569.748,0.0
55785.0,STARLINK-5818,PAYLOAD,2024-04-16 12:44:33,14.98336745,0.0003249,69.9989,149.7924,262.3207,97.7583,-0.00031102,-3.803e-05,0.0,0 STARLINK-5818,1 55785U 23028AW  24107.53094048 -.00003803  00000-0 -31102-3 0  9998,2 55785  69.9989 149.7924 0003249 262.3207  97.7583 14.98336745 63332,6950.172,96.107,574.295,569.779,0.0
55785.0,STARLINK-5818,PAYLOAD,2024-04-17 12:46:33,14.98327223,0.0003024,69.9989,147.2675,271.3968,88.6845,0.00015752,1.787e-05,0.0,0 STARLINK-5818,1 55785U 23028AW  24108.53233578  .00001787  00000-0  15752-3 0  9992,2 55785  69.9989 147.2675 0003024 271.3968  88.6845 14.98327223 63480,6950.201,96.107,574.168,569.965,0.0
55785.0,STARLINK-5818,PAYLOAD,2024-04-18 01:35:39,14.98315307,0.0002569,70.0007,145.9231,260.341,99.7458,9.8323e-05,1.08e-05,0.0,0 STARLINK-5818,1 55785U 23028AW  24109.06642868  .00001080  00000-0  98323-4 0  9999,2 55785  70.0007 145.9231 0002569 260.3410  99.7458 14.98315307 63562,6950.238,96.108,573.889,570.318,0.0
55785.0,STARLINK-5818,PAYLOAD,2024-04-18 11:12:29,14.98306351,0.0002386,70.0004,144.9116,259.7177,100.3713,2.0403e-06,-6.9e-07,0.0,0 STARLINK-5818,1 55785U 23028AW  24109.46700252 -.00000069  00000-0  20403-5 0  9997,2 55785  70.0004 144.9116 0002386 259.7177 100.3713 14.98306351 63628,6950.266,96.109,573.789,570.473,0.0
55785.0,STARLINK-5818,PAYLOAD,2024-04-19 04:49:56,14.98330976,0.0002694,69.9998,143.061,260.3057,99.7797,7.2851e-07,-8.4e-07,0.0,0 STARLINK-5818,1 55785U 23028AW  24110.20135066 -.00000084  00000-0  72851-6 0  9998,2 55785  69.9998 143.0610 0002694 260.3057  99.7797 14.98330976 63738,6950.19,96.107,573.927,570.182,0.0
55785.0,STARLINK-5818,PAYLOAD,2024-04-19 11:14:28,14.98331222,0.0002995,69.9989,142.3862,268.7449,91.3367,4.4397e-05,4.37e-06,0.0,0 STARLINK-5818,1 55785U 23028AW  24110.46838973  .00000437  00000-0  44397-4 0  9996,2 55785  69.9989 142.3862 0002995 268.7449  91.3367 14.98331222 63781,6950.189,96.107,574.136,569.973,0.0
55785.0,STARLINK-5818,PAYLOAD,2024-04-20 04:51:56,14.98334218,0.0003278,69.9983,140.5339,275.8302,84.2483,0.00020693,2.377e-05,0.0,0 STARLINK-5818,1 55785U 23028AW  24111.20274194  .00002377  00000-0  20693-3 0  9995,2 55785  69.9983 140.5339 0003278 275.8302  84.2483 14.98334218 63885,6950.18,96.107,574.323,569.767,0.0
55785.0,STARLINK-5818,PAYLOAD,2024-04-20 11:16:28,14.98340717,0.000317,69.9985,139.8607,275.3455,84.7343,0.00026721,3.098e-05,0.0,0 STARLINK-5818,1 55785U 23028AW  24111.46977484  .00003098  00000-0  26721-3 0  9994,2 55785  69.9985 139.8607 0003170 275.3455  84.7343 14.98340717 63927,6950.16,96.106,574.228,569.822,0.0
55785.0,STARLINK-5818,PAYLOAD,2024-04-21 04:53:59,14.98317951,0.0003235,69.9985,138.0103,268.1601,91.9187,-0.00019466,-2.414e-05,0.0,0 STARLINK-5818,1 55785U 23028AW  24112.20416440 -.00002414  00000-0 -19466-3 0  9998,2 55785  69.9985 138.0103 0003235 268.1601  91.9187 14.98317951 64037,6950.23,96.108,574.344,569.847,0.0
55785.0,STARLINK-5818,PAYLOAD,2024-04-21 11:18:33,14.98299755,0.0003164,69.9988,137.3365,271.8232,88.2565,-0.00035243,-4.292e-05,0.0,0 STARLINK-5818,1 55785U 23028AW  24112.47122338 -.00004292  00000-0 -35243-3 0  9994,2 55785  69.9988 137.3365 0003164 271.8232  88.2565 14.98299755 64089,6950.286,96.109,574.35,569.952,0.0
55785.0,STARLINK-5818,PAYLOAD,2024-04-22 04:56:00,14.98328131,0.0002475,70.0012,135.487,259.1643,100.9238,-9.0307e-05,-1.17e-05,0.0,0 STARLINK-5818,1 55785U 23028AW  24113.20556311 -.00001170  00000-0 -90307-4 0  9993,2 55785  70.0012 135.4870 0002475 259.1643 100.9238 14.98328131 64180,6950.199,96.107,573.784,570.343,0.0
55785.0,STARLINK-5818,PAYLOAD,2024-04-22 09:44:24,14.98330447,0.0002245,70.0012,134.9822,253.8717,106.2195,-5.6562e-05,-7.68e-06,0.0,0 STARLINK-5818,1 55785U 23028AW  24113.40584105 -.00000768  00000-0 -56562-4 0  9994,2 55785  70.0012 134.9822 0002245 253.8717 106.2195 14.98330447 64228,6950.192,96.107,573.617,570.496,0.0
55785.0,STARLINK-5818,PAYLOAD,2024-04-22 11:20:32,14.98330418,0.0002327,70.0008,134.813,261.2074,98.8822,-6.2949e-05,-8.44e-06,0.0,0 STARLINK-5818,1 55785U 23028AW  24113.47260153 -.00000844  00000-0 -62949-4 0  9996,2 55785  70.0008 134.8130 0002327 261.2074  98.8822 14.98330418 64236,6950.192,96.107,573.674,570.439,0.0
55785.0,STARLINK-5818,PAYLOAD,2024-04-23 04:58:00,14.983255,0.0002954,69.9998,132.9581,263.0013,97.081,0.00048028,5.642e-05,0.0,0 STARLINK-5818,1 55785U 23028AW  24114.20694770  .00005642  00000-0  48028-3 0  9994,2 55785  69.9998 132.9581 0002954 263.0013  97.0810 14.98325500 64334,6950.207,96.107,574.125,570.019,0.0
55785.0,STARLINK-5818,PAYLOAD,2024-04-23 11:22:31,14.98340743,0.0003092,69.9993,132.2858,267.6161,92.4644,0.00058261,6.867e-05,0.0,0 STARLINK-5818,1 55785U 23028AW  24114.47397462  .00006867  00000-0  58261-3 0  9991,2 55785  69.9993 132.2858 0003092 267.6161  92.4644 14.98340743 64371,6950.16,96.106,574.174,569.876,0.0
55785.0,STARLINK-5818,PAYLOAD,2024-04-24 03:23:52,14.98342345,0.0002653,70.0021,130.6106,238.8331,121.2568,3.2523e-05,2.95e-06,0.0,0 STARLINK-5818,1 55785U 23028AW  24115.14158553  .00000295  00000-0  32523-4 0  9995,2 55785  70.0021 130.6106 0002653 238.8331 121.2568 14.98342345 64472,6950.155,96.106,573.864,570.176,0.0
55785.0,STARLINK-5818,PAYLOAD,2024-04-24 11:24:33,14.98332573,0.0003202,69.9991,129.7613,267.4818,92.5974,-7.7288e-05,-1.015e-05,0.0,0 STARLINK-5818,1 55785U 23028AW  24115.47539239 -.00001015  00000-0 -77288-4 0  9995,2 55785  69.9991 129.7613 0003202 267.4818  92.5974 14.98332573 64525,6950.185,96.107,574.275,569.824,0.0
55785.0,STARLINK-5818,PAYLOAD,2024-04-25 09:50:26,14.98339146,0.0003157,69.9989,127.4048,260.8925,99.1877,-0.00027101,-3.326e-05,0.0,0 STARLINK-5818,1 55785U 23028AW  24116.41002876 -.00003326  00000-0 -27101-3 0  9997,2 55785  69.9989 127.4048 0003157 260.8925  99.1877 14.98339146 64678,6950.165,96.106,574.224,569.835,0.0
55785.0,STARLINK-5818,PAYLOAD,2024-04-26 03:27:54,14.98326708,0.0003215,69.9995,125.5545,263.3968,96.6825,5.2514e-05,5.34e-06,0.0,0 STARLINK-5818,1 55785U 23028AW  24117.14438598  .00000534  00000-0  52514-4 0  9995,2 55785  69.9995 125.5545 0003215 263.3968  96.6825 14.98326708 64772,6950.203,96.107,574.303,569.834,0.0
